ONEWEB-0033             
1 45142U 20008M   25045.51020308 -.00000233  00000+0 -70246-3 0  9992
2 45142  87.8902 133.4911 0002009 102.2738 257.8614 13.10376670244342
ONEWEB-0035             
1 45143U 20008N   25045.46540110  .00000627  00000+0  17608-2 0  9992
2 45143  87.8902 133.4943 0001976 105.7580 254.3766 13.10371324244063
ONEWEB-0036             
1 45144U 20008P   25045.53179739  .00000706  00000+0  19849-2 0  9993
2 45144  87.8897 133.4284 0001657 107.2463 252.8846 13.10373610244509
ONEWEB-0038             
1 45145U 20008Q   25045.16271237 -.00000423  00000+0 -12292-2 0  9992
2 45145  87.8877 118.3399 0002192 123.3985 236.7353 13.11417976246365
ONEWEB-0039             
1 45146U 20008R   25045.51352492 -.00000061  00000+0 -21070-3 0  9998
2 45146  87.8903 133.4529 0001674 127.0209 233.1072 13.10376918244291
ONEWEB-0040             
1 45147U 20008S   25045.50686995 -.00000394  00000+0 -11644-2 0  9990
2 45147  87.8910 133.4715 0001903 107.0735 253.0601 13.10374802243999
ONEWEB-0043             
1 45149U 20008U   25045.50853862 -.00000478  00000+0 -14051-2 0  9999
2 45149  87.8904 133.4648 0001456 117.6447 242.4828 13.10375331244317
ONEWEB-0044             
1 45150U 20008V   25045.53678065  .00000710  00000+0  19968-2 0  9993
2 45150  87.8899 133.4522 0001666 112.7664 247.3639 13.10372664244616
